NORAD_CAT_ID,OBJECT_NAME,OBJECT_TYPE,EPOCH,MEAN_MOTION,ECCENTRICITY,INCLINATION,RA_OF_ASC_NODE,ARG_OF_PERICENTER,MEAN_ANOMALY,BSTAR,MEAN_MOTION_DOT,MEAN_MOTION_DDOT,TLE_LINE0,TLE_LINE1,TLE_LINE2,SEMIMAJOR_AXIS,PERIOD,APOGEE,PERIGEE,DECAYED
53434.0,STARLINK-4498,PAYLOAD,2024-03-27 07:36:24,15.08861987,0.0001419,53.2177,61.8069,84.6567,275.4587,0.00093263,0.00014595,0.0,0 STARLINK-4498,1 53434U 22097AY  24087.31694956  .00014595  00000-0  93263-3 0  9993,2 53434  53.2177  61.8069 0001419  84.6567 275.4587 15.08861987 91255,6917.813,95.436,540.66,538.697,0.0
53434.0,STARLINK-4498,PAYLOAD,2024-03-28 04:16:25,15.08853711,0.0001506,53.2187,57.9403,93.0499,267.0665,0.00039003,5.927e-05,0.0,0 STARLINK-4498,1 53434U 22097AY  24088.17806735  .00005927  00000-0  39003-3 0  9999,2 53434  53.2187  57.9403 0001506  93.0499 267.0665 15.08853711 90898,6917.838,95.437,540.745,538.662,0.0
53434.0,STARLINK-4498,PAYLOAD,2024-03-28 21:45:39,15.08852668,0.0001312,53.218,54.6738,88.8715,271.2427,2.5502e-05,1.18e-06,0.0,0 STARLINK-4498,1 53434U 22097AY  24088.90670149  .00000118  00000-0  25502-4 0  9995,2 53434  53.2180  54.6738 0001312  88.8715 271.2427 15.08852668 91494,6917.842,95.437,540.614,538.799,0.0
53434.0,STARLINK-4498,PAYLOAD,2024-03-29 04:07:11,15.08854272,0.000134,53.2187,53.4802,95.3358,264.7787,-0.00011321,-2.09e-05,0.0,0 STARLINK-4498,1 53434U 22097AY  24089.17166577 -.00002090  00000-0 -11321-3 0  9996,2 53434  53.2187  53.4802 0001340  95.3358 264.7787 15.08854272 91047,6917.837,95.437,540.629,538.775,0.0
53434.0,STARLINK-4498,PAYLOAD,2024-03-30 03:57:58,15.08841224,0.0001274,53.2182,49.0205,97.7197,262.3939,1.2372e-05,-9.1e-07,0.0,0 STARLINK-4498,1 53434U 22097AY  24090.16526576 -.00000091  00000-0  12372-4 0  9992,2 53434  53.2182  49.0205 0001274  97.7197 262.3939 15.08841224 91195,6917.877,95.437,540.623,538.86,0.0
53434.0,STARLINK-4498,PAYLOAD,2024-03-30 07:08:45,15.08841534,0.0001271,53.2182,48.4257,97.3837,262.7299,1.2226e-05,-9.3e-07,0.0,0 STARLINK-4498,1 53434U 22097AY  24090.29774522 -.00000093  00000-0  12226-4 0  9992,2 53434  53.2182  48.4257 0001271  97.3837 262.7299 15.08841534 91703,6917.876,95.437,540.62,538.861,0.0
53434.0,STARLINK-4498,PAYLOAD,2024-03-30 21:27:13,15.08834524,0.0001305,53.2183,45.7493,97.3199,262.7942,6.6729e-05,7.74e-06,0.0,0 STARLINK-4498,1 53434U 22097AY  24090.89390867  .00000774  00000-0  66729-4 0  9996,2 53434  53.2183  45.7493 0001305  97.3199 262.7942 15.08834524 91790,6917.897,95.438,540.665,538.859,0.0
53434.0,STARLINK-4498,PAYLOAD,2024-03-31 02:13:23,15.08831063,0.0001285,53.2181,44.8576,97.2282,262.8856,3.6592e-05,2.94e-06,0.0,0 STARLINK-4498,1 53434U 22097AY  24091.09263275  .00000294  00000-0  36592-4 0  9993,2 53434  53.2181  44.8576 0001285  97.2282 262.8856 15.08831063 91339,6917.908,95.438,540.662,538.884,0.0
53434.0,STARLINK-4498,PAYLOAD,2024-03-31 13:21:04,15.08839222,0.0001292,53.218,42.7806,96.4372,263.6767,8.8403e-05,1.119e-05,0.0,0 STARLINK-4498,1 53434U 22097AY  24091.55630705  .00001119  00000-0  88403-4 0  9995,2 53434  53.2180  42.7806 0001292  96.4372 263.6767 15.08839222 91403,6917.883,95.438,540.642,538.854,0.0
53434.0,STARLINK-4498,PAYLOAD,2024-04-01 03:39:34,15.08830389,0.0001184,53.2181,40.1027,82.762,277.3507,-1.1454e-05,-4.7e-06,0.0,0 STARLINK-4498,1 53434U 22097AY  24092.15247914 -.00000470  00000-0 -11454-4 0  9991,2 53434  53.2181  40.1027 0001184  82.7620 277.3507 15.08830389 91493,6917.91,95.438,540.594,538.956,0.0
53434.0,STARLINK-4498,PAYLOAD,2024-04-01 13:11:52,15.08838962,0.0001337,53.2196,38.3204,94.4315,265.683,9.6406e-05,1.247e-05,0.0,0 STARLINK-4498,1 53434U 22097AY  24092.54991235  .00001247  00000-0  96406-4 0  9997,2 53434  53.2196  38.3204 0001337  94.4315 265.6830 15.08838962 91557,6917.884,95.438,540.673,538.824,0.0
53434.0,STARLINK-4498,PAYLOAD,2024-04-02 05:05:43,15.08838391,0.0001479,53.2203,35.3468,96.0827,264.0334,0.00016728,2.375e-05,0.0,0 STARLINK-4498,1 53434U 22097AY  24093.21231329  .00002375  00000-0  16728-3 0  9994,2 53434  53.2203  35.3468 0001479  96.0827 264.0334 15.08838391 92142,6917.885,95.438,540.773,538.727,0.0
53434.0,STARLINK-4498,PAYLOAD,2024-04-03 04:56:32,15.08826139,0.0001439,53.2203,30.8874,82.7299,277.3857,-6.2204e-05,-1.277e-05,0.0,0 STARLINK-4498,1 53434U 22097AY  24094.20592602 -.00001277  00000-0 -62204-4 0  9991,2 53434  53.2203  30.8874 0001439  82.7299 277.3857 15.08826139 91800,6917.923,95.438,540.783,538.792,0.0
53434.0,STARLINK-4498,PAYLOAD,2024-04-03 12:53:27,15.08831829,0.0001335,53.22,29.3996,85.7727,274.3418,-4.2819e-05,-9.69e-06,0.0,0 STARLINK-4498,1 53434U 22097AY  24094.53712282 -.00000969  00000-0 -42819-4 0  9992,2 53434  53.2200  29.3996 0001335  85.7727 274.3418 15.08831829 92341,6917.905,95.438,540.694,538.847,0.0
53434.0,STARLINK-4498,PAYLOAD,2024-04-03 19:14:59,15.08830339,0.0001207,53.2189,28.21,91.1852,268.9279,1.5304e-06,-2.63e-06,0.0,0 STARLINK-4498,1 53434U 22097AY  24094.80208302 -.00000263  00000-0  15304-5 0  9991,2 53434  53.2189  28.2100 0001207  91.1852 268.9279 15.08830339 91898,6917.91,95.438,540.61,538.94,0.0
53434.0,STARLINK-4498,PAYLOAD,2024-04-04 04:47:17,15.08846831,0.0001318,53.2192,26.4247,85.86,274.2542,7.127e-05,8.47e-06,0.0,0 STARLINK-4498,1 53434U 22097AY  24095.19951091  .00000847  00000-0  71270-4 0  9994,2 53434  53.2192  26.4247 0001318  85.8600 274.2542 15.08846831 91952,6917.86,95.437,540.636,538.813,0.0
53434.0,STARLINK-4498,PAYLOAD,2024-04-04 12:44:12,15.0885379,0.0001371,53.2199,24.9385,88.2316,271.8833,6.1132e-05,6.85e-06,0.0,0 STARLINK-4498,1 53434U 22097AY  24095.53070506  .00000685  00000-0  61132-4 0  9991,2 53434  53.2199  24.9385 0001371  88.2316 271.8833 15.08853790 92493,6917.838,95.437,540.652,538.755,0.0
53434.0,STARLINK-4498,PAYLOAD,2024-04-05 04:38:05,15.08833471,0.000166,53.2206,21.9621,93.8309,266.2873,0.00018571,2.668e-05,0.0,0 STARLINK-4498,1 53434U 22097AY  24096.19311498  .00002668  00000-0  18571-3 0  9993,2 53434  53.2206  21.9621 0001660  93.8309 266.2873 15.08833471 92101,6917.9,95.438,540.914,538.617,0.0
53434.0,STARLINK-4498,PAYLOAD,2024-04-05 12:35:00,15.08843404,0.0001474,53.2196,20.476,96.8458,263.2702,0.00020687,3.006e-05,0.0,0 STARLINK-4498,1 53434U 22097AY  24096.52430765  .00003006  00000-0  20687-3 0  9997,2 53434  53.2196  20.4760 0001474  96.8458 263.2702 15.08843404 92158,6917.87,95.437,540.755,538.715,0.0
53434.0,STARLINK-4498,PAYLOAD,2024-04-05 22:07:20,15.08832113,0.000143,53.2194,18.6948,78.5604,281.5549,-2.3795e-05,-6.67e-06,0.0,0 STARLINK-4498,1 53434U 22097AY  24096.92176151 -.00000667  00000-0 -23795-4 0  9993,2 53434  53.2194  18.6948 0001430  78.5604 281.5549 15.08832113 92703,6917.904,95.438,540.759,538.78,0.0
53434.0,STARLINK-4498,PAYLOAD,2024-04-06 01:18:06,15.08837496,0.0001493,53.2192,18.0994,86.4082,273.7081,2.5084e-05,1.11e-06,0.0,0 STARLINK-4498,1 53434U 22097AY  24097.05423732  .00000111  00000-0  25084-4 0  9993,2 53434  53.2192  18.0994 0001493  86.4082 273.7081 15.08837496 92234,6917.888,95.438,540.786,538.72,0.0
53434.0,STARLINK-4498,PAYLOAD,2024-04-06 21:58:06,15.08834686,0.0001545,53.2196,14.2307,98.8036,261.3131,3.3442e-05,2.44e-06,0.0,0 STARLINK-4498,1 53434U 22097AY  24097.91535865  .00000244  00000-0  33442-4 0  9993,2 53434  53.2196  14.2307 0001545  98.8036 261.3131 15.08834686 92853,6917.897,95.438,540.83,538.693,0.0
53434.0,STARLINK-4498,PAYLOAD,2024-04-07 01:08:53,15.08835907,0.0001473,53.2203,13.6369,96.8185,263.2975,-2.3055e-05,-6.55e-06,0.0,0 STARLINK-4498,1 53434U 22097AY  24098.04784017 -.00000655  00000-0 -23055-4 0  9990,2 53434  53.2203  13.6369 0001473  96.8185 263.2975 15.08835907 92872,6917.893,95.438,540.777,538.739,0.0
53434.0,STARLINK-4498,PAYLOAD,2024-04-07 21:48:54,15.08832177,0.0001422,53.2206,9.7704,95.011,265.1045,9.6388e-05,1.246e-05,0.0,0 STARLINK-4498,1 53434U 22097AY  24098.90896167  .00001246  00000-0  96388-4 0  9999,2 53434  53.2206   9.7704 0001422  95.0110 265.1045 15.08832177 93008,6917.904,95.438,540.753,538.786,0.0
53434.0,STARLINK-4498,PAYLOAD,2024-04-08 00:59:40,15.08835763,0.0001381,53.219,9.1768,88.9876,271.1275,0.00011321,1.514e-05,0.0,0 STARLINK-4498,1 53434U 22097AY  24099.04143987  .00001514  00000-0  11321-3 0  9991,2 53434  53.2190   9.1768 0001381  88.9876 271.1275 15.08835763 92531,6917.893,95.438,540.714,538.803,0.0
53434.0,STARLINK-4498,PAYLOAD,2024-04-08 10:31:58,15.08847329,0.0001334,53.2197,7.395,94.5121,265.6023,0.00011845,1.598e-05,0.0,0 STARLINK-4498,1 53434U 22097AY  24099.43887263  .00001598  00000-0  11845-3 0  9999,2 53434  53.2197   7.3950 0001334  94.5121 265.6023 15.08847329 92591,6917.858,95.437,540.646,538.8,0.0
53434.0,STARLINK-4498,PAYLOAD,2024-04-09 00:50:27,15.08834654,0.0001452,53.2192,4.7194,99.7449,260.3707,0.00011054,1.471e-05,0.0,0 STARLINK-4498,1 53434U 22097AY  24100.03504293  .00001471  00000-0  11054-3 0  9999,2 53434  53.2192   4.7194 0001452  99.7449 260.3707 15.08834654 93171,6917.897,95.438,540.766,538.757,0.0
53434.0,STARLINK-4498,PAYLOAD,2024-04-09 10:22:45,15.08844877,0.0001533,53.2198,2.9355,95.1026,265.0141,0.00015633,2.201e-05,0.0,0 STARLINK-4498,1 53434U 22097AY  24100.43247601  .00002201  00000-0  15633-3 0  9999,2 53434  53.2198   2.9355 0001533  95.1026 265.0141 15.08844877 92741,6917.865,95.437,540.791,538.67,0.0
53434.0,STARLINK-4498,PAYLOAD,2024-04-10 02:16:37,15.08841074,0.0001493,53.2193,359.9606,89.9714,270.1449,3.2224e-05,2.25e-06,0.0,0 STARLINK-4498,1 53434U 22097AY  24101.09488236  .00000225  00000-0  32224-4 0  9993,2 53434  53.2193 359.9606 0001493  89.9714 270.1449 15.08841074 92845,6917.877,95.437,540.775,538.709,0.0
53434.0,STARLINK-4498,PAYLOAD,2024-04-10 10:13:33,15.08847427,0.0001549,53.2194,358.4747,91.919,268.198,6.8881e-05,8.09e-06,0.0,0 STARLINK-4498,1 53434U 22097AY  24101.42607712  .00000809  00000-0  68881-4 0  9998,2 53434  53.2194 358.4747 0001549  91.9190 268.1980 15.08847427 93384,6917.858,95.437,540.794,538.651,0.0
